CCSDS_OMM_VERS = 2.0
CREATION_DATE  = 
ORIGINATOR     = 

OBJECT_NAME    = SHENZHOU-21 (SZ-21)
OBJECT_ID      = 2025-246A
CENTER_NAME    = EARTH
REF_FRAME      = TEME
TIME_SYSTEM    = UTC
MEAN_ELEMENT_THEORY = SGP/SGP4

EPOCH          = 2025-11-13T13:35:56.349024
MEAN_MOTION    = 15.61136761
ECCENTRICITY   = .00040438
INCLINATION    = 41.4655
RA_OF_ASC_NODE = 193.7650
ARG_OF_PERICENTER = 19.8637
MEAN_ANOMALY   = 340.2359

EPHEMERIS_TYPE = 0
CLASSIFICATION_TYPE = U
NORAD_CAT_ID   = 66263
ELEMENT_SET_NO = 999
REV_AT_EPOCH   = 25813
BSTAR          = .50608643E-3
MEAN_MOTION_DOT = .43889E-3
MEAN_MOTION_DDOT = 0

