SHENZHOU-21 (SZ-21)     
1 66263U 25246A   25317.56662441  .00043889  00000+0  50609-3 0  9998
2 66263  41.4655 193.7650 0004043  19.8637 340.2359 15.61136761258138
